NORAD_CAT_ID,OBJECT_NAME,OBJECT_TYPE,EPOCH,MEAN_MOTION,ECCENTRICITY,INCLINATION,RA_OF_ASC_NODE,ARG_OF_PERICENTER,MEAN_ANOMALY,BSTAR,MEAN_MOTION_DOT,MEAN_MOTION_DDOT,TLE_LINE0,TLE_LINE1,TLE_LINE2,SEMIMAJOR_AXIS,PERIOD,APOGEE,PERIGEE,DECAYED
49760.0,STARLINK-3199,PAYLOAD,2023-09-12 10:11:02,15.08852522,0.0001552,53.2153,260.973,82.9007,277.2161,0.00026509,3.935e-05,0.0,0 STARLINK-3199,1 49760U 21115AN  23255.42433789  .00003935  00000-0  26509-3 0  9998,2 49760  53.2153 260.9730 0001552  82.9007 277.2161 15.08852522 98419,6917.842,95.437,540.781,538.633,0.0
49760.0,STARLINK-3199,PAYLOAD,2023-09-12 18:07:58,15.08848399,0.0001594,53.2137,259.4858,72.8722,287.2445,0.00022714,3.33e-05,0.0,0 STARLINK-3199,1 49760U 21115AN  23255.75553959  .00003330  00000-0  22714-3 0  9999,2 49760  53.2137 259.4858 0001594  72.8722 287.2445 15.08848399 98461,6917.855,95.437,540.822,538.617,0.0
49760.0,STARLINK-3199,PAYLOAD,2023-09-13 10:01:49,15.08850718,0.0001575,53.2157,256.5117,90.157,269.9602,0.00023239,3.413e-05,0.0,0 STARLINK-3199,1 49760U 21115AN  23256.41793773  .00003413  00000-0  23239-3 0  9998,2 49760  53.2157 256.5117 0001575  90.1570 269.9602 15.08850718 99676,6917.848,95.437,540.802,538.623,0.0
49760.0,STARLINK-3199,PAYLOAD,2023-09-14 00:20:18,15.08837832,0.0001667,53.2157,253.8361,88.0926,272.0257,-8.0327e-06,-4.16e-06,0.0,0 STARLINK-3199,1 49760U 21115AN  23257.01410583 -.00000416  00000-0 -80327-5 0  9995,2 49760  53.2157 253.8361 0001667  88.0926 272.0257 15.08837832 99763,6917.887,95.438,540.905,538.599,0.0
49760.0,STARLINK-3199,PAYLOAD,2023-09-14 06:41:51,15.08832021,0.0001523,53.2154,252.645,90.4608,269.6558,-0.00013227,-2.392e-05,0.0,0 STARLINK-3199,1 49760U 21115AN  23257.27906895 -.00002392  00000-0 -13227-3 0  9997,2 49760  53.2154 252.6450 0001523  90.4608 269.6558 15.08832021 98693,6917.905,95.438,540.823,538.716,0.0
49760.0,STARLINK-3199,PAYLOAD,2023-09-14 16:14:10,15.08831127,0.0001573,53.2155,250.8564,84.0767,276.0405,-0.00011232,-2.075e-05,0.0,0 STARLINK-3199,1 49760U 21115AN  23257.67651115 -.00002075  00000-0 -11232-3 0  9995,2 49760  53.2155 250.8564 0001573  84.0767 276.0405 15.08831127 99869,6917.908,95.438,540.861,538.684,0.0
49760.0,STARLINK-3199,PAYLOAD,2023-09-15 04:57:15,15.08842751,0.0001597,53.2157,248.4828,102.6361,257.481,0.00018477,2.654e-05,0.0,0 STARLINK-3199,1 49760U 21115AN  23258.20642730  .00002654  00000-0  18477-3 0  9997,2 49760  53.2157 248.4828 0001597 102.6361 257.4810 15.08842751 99947,6917.872,95.437,540.842,538.632,0.0
49760.0,STARLINK-3199,PAYLOAD,2023-09-15 06:32:38,15.08843563,0.0001567,53.2155,248.1857,102.5206,257.5962,0.00026969,4.007e-05,0.0,0 STARLINK-3199,1 49760U 21115AN  23258.27266789  .00004007  00000-0  26969-3 0  9999,2 49760  53.2155 248.1857 0001567 102.5206 257.5962 15.08843563 98847,6917.869,95.437,540.819,538.65,0.0
49760.0,STARLINK-3199,PAYLOAD,2023-09-15 22:26:30,15.08838694,0.0001706,53.2163,245.2137,108.9717,251.146,0.00021365,3.114e-05,0.0,0 STARLINK-3199,1 49760U 21115AN  23258.93507135  .00003114  00000-0  21365-3 0  9998,2 49760  53.2163 245.2137 0001706 108.9717 251.1460 15.08838694100056,6917.884,95.438,540.93,538.569,0.0
49760.0,STARLINK-3199,PAYLOAD,2023-09-16 06:23:25,15.08841894,0.0001704,53.2162,243.7267,109.3115,250.8062,0.00023831,3.507e-05,0.0,0 STARLINK-3199,1 49760U 21115AN  23259.26627104  .00003507  00000-0  23831-3 0  9990,2 49760  53.2162 243.7267 0001704 109.3115 250.8062 15.08841894 98996,6917.875,95.437,540.918,538.561,0.0
49760.0,STARLINK-3199,PAYLOAD,2023-09-17 07:49:35,15.08847081,0.0001586,53.2163,238.9687,105.2008,254.9159,0.00018282,2.623e-05,0.0,0 STARLINK-3199,1 49760U 21115AN  23260.32610863  .00002623  00000-0  18282-3 0  9995,2 49760  53.2163 238.9687 0001586 105.2008 254.9159 15.08847081100263,6917.859,95.437,540.821,538.627,0.0
49760.0,STARLINK-3199,PAYLOAD,2023-09-18 02:54:13,15.08846344,0.0001688,53.2165,235.3997,91.7769,268.3417,0.00019831,2.87e-05,0.0,0 STARLINK-3199,1 49760U 21115AN  23261.12099109  .00002870  00000-0  19831-3 0  9993,2 49760  53.2165 235.3997 0001688  91.7769 268.3417 15.08846344100386,6917.861,95.437,540.894,538.558,0.0
49760.0,STARLINK-3199,PAYLOAD,2023-09-18 07:40:22,15.08863293,0.0001433,53.2161,234.5068,94.4501,265.6654,0.00039877,6.068e-05,0.0,0 STARLINK-3199,1 49760U 21115AN  23261.31969962  .00006068  00000-0  39877-3 0  9992,2 49760  53.2161 234.5068 0001433  94.4501 265.6654 15.08863293100413,6917.809,95.436,540.666,538.683,0.0
49760.0,STARLINK-3199,PAYLOAD,2023-09-18 15:37:18,15.08843804,0.0001566,53.2167,233.0197,81.9426,278.1744,9.2757e-05,1.189e-05,0.0,0 STARLINK-3199,1 49760U 21115AN  23261.65090894  .00001189  00000-0  92757-4 0  9994,2 49760  53.2167 233.0197 0001566  81.9426 278.1744 15.08843804100460,6917.869,95.437,540.817,538.65,0.0
49760.0,STARLINK-3199,PAYLOAD,2023-09-20 04:11:10,15.08838957,0.0001459,53.2168,226.179,99.6809,260.4348,-5.4345e-06,-3.74e-06,0.0,0 STARLINK-3199,1 49760U 21115AN  23263.17442974 -.00000374  00000-0 -54345-5 0  9992,2 49760  53.2168 226.1790 0001459  99.6809 260.4348 15.08838957100697,6917.884,95.438,540.758,538.739,0.0
49760.0,STARLINK-3199,PAYLOAD,2023-09-20 07:21:56,15.08843132,0.0001536,53.2165,225.5831,106.337,253.7792,4.4937e-05,4.27e-06,0.0,0 STARLINK-3199,1 49760U 21115AN  23263.30690764  .00000427  00000-0  44937-4 0  9991,2 49760  53.2165 225.5831 0001536 106.3370 253.7792 15.08843132 99605,6917.871,95.437,540.798,538.673,0.0
49760.0,STARLINK-3199,PAYLOAD,2023-09-21 02:26:35,15.08830834,0.0001409,53.216,222.0163,109.8098,250.3047,7.7311e-06,-1.65e-06,0.0,0 STARLINK-3199,1 49760U 21115AN  23264.10179748 -.00000165  00000-0  77311-5 0  9997,2 49760  53.2160 222.0163 0001409 109.8098 250.3047 15.08830834100833,6917.908,95.438,540.748,538.799,0.0
49760.0,STARLINK-3199,PAYLOAD,2023-09-21 21:31:13,15.08835254,0.0001339,53.2159,218.4456,107.902,252.2118,0.00013269,1.824e-05,0.0,0 STARLINK-3199,1 49760U 21115AN  23264.89667927  .00001824  00000-0  13269-3 0  9996,2 49760  53.2159 218.4456 0001339 107.9020 252.2118 15.08835254 99840,6917.895,95.438,540.686,538.834,0.0
49760.0,STARLINK-3199,PAYLOAD,2023-09-22 03:52:45,15.08844272,0.0001197,53.216,217.2593,98.534,261.5788,0.00029041,4.338e-05,0.0,0 STARLINK-3199,1 49760U 21115AN  23265.16163718  .00004338  00000-0  29041-3 0  9994,2 49760  53.2160 217.2593 0001197  98.5340 261.5788 15.08844272100998,6917.867,95.437,540.56,538.904,0.0
49760.0,STARLINK-3199,PAYLOAD,2023-09-22 21:22:00,15.08841295,0.0001146,53.2159,213.9907,110.4103,249.7012,0.00019175,2.765e-05,0.0,0 STARLINK-3199,1 49760U 21115AN  23265.89027965  .00002765  00000-0  19175-3 0  9996,2 49760  53.2159 213.9907 0001146 110.4103 249.7012 15.08841295 99990,6917.876,95.437,540.534,538.949,0.0
49760.0,STARLINK-3199,PAYLOAD,2023-09-23 02:08:09,15.08846177,0.0001224,53.2165,213.0987,109.3249,250.7875,0.0002579,3.82e-05,0.0,0 STARLINK-3199,1 49760U 21115AN  23266.08899730  .00003820  00000-0  25790-3 0  9998,2 49760  53.2165 213.0987 0001224 109.3249 250.7875 15.08846177101134,6917.862,95.437,540.573,538.88,0.0
49760.0,STARLINK-3199,PAYLOAD,2023-09-23 05:18:55,15.08850787,0.0001244,53.2163,212.5042,109.1605,250.9522,0.00033632,5.07e-05,0.0,0 STARLINK-3199,1 49760U 21115AN  23266.22147525  .00005070  00000-0  33632-3 0  9995,2 49760  53.2163 212.5042 0001244 109.1605 250.9522 15.08850787100046,6917.847,95.437,540.573,538.852,0.0
49760.0,STARLINK-3199,PAYLOAD,2023-09-24 03:34:19,15.08844749,0.0001249,53.216,208.3385,93.0418,267.0717,0.00010293,1.351e-05,0.0,0 STARLINK-3199,1 49760U 21115AN  23267.14883715  .00001351  00000-0  10293-3 0  9991,2 49760  53.2160 208.3385 0001249  93.0418 267.0717 15.08844749101298,6917.866,95.437,540.595,538.867,0.0
49760.0,STARLINK-3199,PAYLOAD,2023-09-24 05:09:42,15.08845985,0.0001267,53.2158,208.041,94.7806,265.3331,0.0001298,1.779e-05,0.0,0 STARLINK-3199,1 49760U 21115AN  23267.21507646  .00001779  00000-0  12980-3 0  9994,2 49760  53.2158 208.0410 0001267  94.7806 265.3331 15.08845985100194,6917.862,95.437,540.604,538.851,0.0
49760.0,STARLINK-3199,PAYLOAD,2023-09-24 19:28:10,15.08842763,0.0001383,53.2159,205.366,88.6231,271.492,7.6862e-05,9.36e-06,0.0,0 STARLINK-3199,1 49760U 21115AN  23267.81123815  .00000936  00000-0  76862-4 0  9996,2 49760  53.2159 205.3660 0001383  88.6231 271.4920 15.08842763100288,6917.872,95.437,540.694,538.78,0.0
49760.0,STARLINK-3199,PAYLOAD,2023-09-25 01:49:43,15.08841816,0.0001409,53.2159,204.1764,86.8737,273.2416,8.3583e-05,1.043e-05,0.0,0 STARLINK-3199,1 49760U 21115AN  23268.07619902  .00001043  00000-0  83583-4 0  9990,2 49760  53.2159 204.1764 0001409  86.8737 273.2416 15.08841816101436,6917.875,95.437,540.715,538.765,0.0
49760.0,STARLINK-3199,PAYLOAD,2023-09-25 05:00:29,15.08852818,0.0001422,53.2159,203.5813,86.969,273.1465,0.00031619,4.75e-05,0.0,0 STARLINK-3199,1 49760U 21115AN  23268.20867638  .00004750  00000-0  31619-3 0  9996,2 49760  53.2159 203.5813 0001422  86.9690 273.1465 15.08852818101457,6917.841,95.437,540.69,538.722,0.0
49760.0,STARLINK-3199,PAYLOAD,2023-09-25 12:57:25,15.08849475,0.0001257,53.2157,202.0926,95.2053,264.9083,0.00024013,3.537e-05,0.0,0 STARLINK-3199,1 49760U 21115AN  23268.53987401  .00003537  00000-0  24013-3 0  9995,2 49760  53.2157 202.0926 0001257  95.2053 264.9083 15.08849475100397,6917.851,95.437,540.586,538.847,0.0
49760.0,STARLINK-3199,PAYLOAD,2023-09-26 01:40:29,15.08855118,0.0001434,53.2152,199.7143,94.0867,266.0289,0.00029508,4.413e-05,0.0,0 STARLINK-3199,1 49760U 21115AN  23269.06978972  .00004413  00000-0  29508-3 0  9995,2 49760  53.2152 199.7143 0001434  94.0867 266.0289 15.08855118101586,6917.834,95.437,540.691,538.707,0.0
49760.0,STARLINK-3199,PAYLOAD,2023-09-27 01:31:17,15.08837519,0.0001455,53.2159,195.2521,91.1452,268.9707,-2.7204e-05,-7.21e-06,0.0,0 STARLINK-3199,1 49760U 21115AN  23270.06339893 -.00000721  00000-0 -27204-4 0  9992,2 49760  53.2159 195.2521 0001455  91.1452 268.9707 15.08837519101733,6917.888,95.438,540.76,538.746,0.0
